0 OLYMPUS 1
1 20122U 89053A   13280.29571199 -.00000231  00000-0  10000-3 0  7303
2 20122 014.2977 018.3779 0013842 192.3254 167.6448 01.01374346 73878
0 OLYMPUS 1
1 20122U 89053A   13282.26851343 -.00000259  00000-0  10000-3 0  7315
2 20122 014.2995 018.3558 0014169 193.3723 166.5939 01.01374221 73895
0 OLYMPUS 1
1 20122U 89053A   13287.20052130 -.00000284  00000-0  10000-3 0  7320
2 20122 014.3038 018.3003 0014312 194.2063 165.7481 01.01373146 73940
0 OLYMPUS 1
1 20122U 89053A   13294.10544185 -.00000192  00000-0  10000-3 0  7332
2 20122 014.3110 018.2227 0014843 197.1478 162.7439 01.01369721 74012
